#aV2009  9  3  0  0   .00000000      96 DD+AD WGS84 FIT  NGA
## 1547 345600.00000000   900.00000000 55077  .0000000000000
+   32     1  2  3  4  5  6  7  8  9 10 11 12 13 14 15 16 17
+         18 19 20 21 22 23 24 25 26 27 28 29 30 31 32  0  0
+          0  0  0  0  0  0  0  0  0  0  0  0  0  0  0  0  0
+          0  0  0  0  0  0  0  0  0  0  0  0  0  0  0  0  0
+          0  0  0  0  0  0  0  0  0  0  0  0  0  0  0  0  0
++         0  0  0  0  0  0  0  0  0  0  0  0  0  0  0  0  0
++         0  0  0  0  0  0  0  0  0  0  0  0  0  0  0  0  0
++         0  0  0  0  0  0  0  0  0  0  0  0  0  0  0  0  0
++         0  0  0  0  0  0  0  0  0  0  0  0  0  0  0  0  0
++         0  0  0  0  0  0  0  0  0  0  0  0  0  0  0  0  0
%c cc cc ccc ccc cccc cccc cccc cccc ccccc ccccc ccccc ccccc
%c cc cc ccc ccc cccc cccc cccc cccc ccccc ccccc ccccc ccccc
%f  0.0000000  0.000000000  0.00000000000  0.000000000000000
%f  0.0000000  0.000000000  0.00000000000  0.000000000000000
%i    0    0    0    0      0      0      0      0         0
%i    0    0    0    0      0      0      0      0         0
/*      NGA, ST. LOUIS,MO.                                  
/*   EPHEMERIS COMPUTED FROM  3 DAYS OF DATA                
/* CCCCCCCCCCCCCCCCCCCCCCCCCCCCCCCCCCCCCCCCCCCCCCCCCCCCCCCCC
/* CCCCCCCCCCCCCCCCCCCCCCCCCCCCCCCCCCCCCCCCCCCCCCCCCCCCCCCCC
*  2009  9  3 13  0   .00000000                                                 
P  1  15321.768683  -1632.258780  21524.829814    -57.834388                    
V  1  -2878.330681  27429.891488   4210.094766       .002735                    
P  2   7305.938999  19970.186960  16095.040022    169.652267                    
V  2 -17684.193263 -10503.482050  20539.479526       .027323                    
P  3  -3544.670503 -16150.178327 -21068.891656    442.199288                    
V  3  23231.255714 -12120.438490   5826.175703       .050039                    
P  4  -4459.999832  15688.703199  20764.665295   -248.787795                    
V  4 -21900.951253 -15531.008533   7346.935998      -.171999                    
P  5  -3403.915358  26334.774215    218.630454    -94.851069                    
V  5  -2760.775321   -687.797804  31796.142127       .131361                    
P  6   1811.857608 -17195.901056 -19955.983141    232.272178                    
V  6  23922.312803  -9928.989959  10713.428757       .073221                    
P  7 -21486.331430  -3001.627134 -15441.494137     12.171238                    
V  7 -14470.018267 -13177.976423  22584.378825      -.007064                    
P  8 -13534.257079   7223.390925 -21794.012017   -219.652359                    
V  8 -20643.214696 -18033.275157   6354.238415      -.017547                    
P  9  21227.740049  16006.044577  -1150.861273     75.461133                    
V  9  -1824.121554   1442.489151 -32040.839988       .020768                    
P 10   2159.443515  25000.140434  -8329.318235    -22.722081                    
V 10  -4495.729239   9895.679169  29435.727083      -.008739                    
P 11 -24259.936641 -11282.221652   -164.947560    -17.958520                    
V 11   1931.804369  -4303.568954 -29866.354316      -.016446                    
P 12  12322.256713  12363.157381  20110.171486   -224.544843                    
V 12  -4303.292490  25006.359441 -12650.625320       .057594                    
P 13 -25496.531736   5648.899086   4765.581606    304.103103                    
V 13   5284.415882  -3643.945488  31727.309317       .004869                    
P 14  19533.466574 -14629.252061  10447.188624    -56.090018                    
V 14  12880.011419  -2902.990363 -28622.087091       .053259                    
P 15  10756.870775  11682.892964 -21272.578834   -316.984603                    
V 15 -24587.074092  11357.249259  -6120.162144      -.013961                    
P 16   2208.635881 -26209.280016  -2509.455855     16.499030                    
V 16   3207.889343  -2817.049261  31889.045810      -.038258                    
P 17 -19409.700126  15118.643577   9821.686642     82.069796                    
V 17 -12536.650107   2120.300303 -28438.337712       .029238                    
P 18  15575.349216  -8857.135070 -19238.519394      9.991924                    
V 18  -2148.786950  25116.068650 -13513.311015       .029144                    
P 19 -12460.623925 -11138.003982 -20650.499405     12.415607                    
V 19  24676.548879  -9082.584377  -9701.174646      -.016532                    
P 20 -13965.203397  -9578.724233  20350.209141     73.180830                    
V 20   3675.151606 -25940.057006  -9585.156003      -.009188                    
P 21  20465.221621    107.708179 -16968.261494     -6.964902                    
V 21  16055.255981  15073.477168  18518.096795      -.022492                    
P 22  12053.390845 -20357.123545 -11824.504732    191.819508                    
V 22    568.983175  15639.570942 -26059.959426      -.010682                    
P 23 -20781.378392  -3513.492663  16307.952312    388.941825                    
V 23  18501.580988  -9263.356346  21232.318409      -.003612                    
P 24  22374.720092  11791.698143  -7547.424948    217.654004                    
V 24   5463.553089   8776.997488  29669.124737       .031536                    
P 25 -23679.992827  -7921.056134  -8427.565602    579.664299                    
V 25  -8187.330038  -8074.441137  29602.478390       .153895                    
P 26  24621.066656 -10274.043824   2286.446472     63.614397                    
V 26   3788.386367    170.885116 -31950.125868      -.007656                    
P 27  19831.328699  16938.040018  -4390.662098     79.632972                    
V 27  -6663.107150  -1611.885739 -31417.176072       .032016                    
P 28 -12577.122384  18338.715457 -13844.581270    -26.198458                    
V 28    570.917899 -18579.056225 -24671.115189       .000184                    
P 29  25132.782132  -4080.460577   7576.388486     54.282523                    
V 29  -7890.794662   5928.619694  29794.924617       .032910                    
P 30  15233.470667    125.013933  21371.676985    173.888951                    
V 30  -2157.344446  28001.599580   1418.003490       .030825                    
P 31   1889.698523 -16436.956865  20951.434450    -64.712547                    
V 31  21302.340795  15151.481153  10201.099805       .003334                    
P 32  -9179.234796 -17577.895525  18188.636708    203.444897                    
V 32   5942.929899 -21442.275675 -17840.770491      -.069572                    
EOF
